OBJECT_NAME,OBJECT_ID,EPOCH,MEAN_MOTION,ECCENTRICITY,INCLINATION,RA_OF_ASC_NODE,ARG_OF_PERICENTER,MEAN_ANOMALY,EPHEMERIS_TYPE,CLASSIFICATION_TYPE,NORAD_CAT_ID,ELEMENT_SET_NO,REV_AT_EPOCH,BSTAR,MEAN_MOTION_DOT,MEAN_MOTION_DDOT
ONEWEB-0473,2022-012AH,2026-06-26T21:00:31.631904,13.10368414,.00018006,87.8825,34.3468,82.2990,277.8342,0,U,51653,999,21057,.4175294E-2,.147E-4,0
ONEWEB-0474,2022-012AJ,2026-06-26T20:48:15.430464,13.10373081,.00015348,87.8834,34.3335,80.4219,279.7082,0,U,51654,999,21056,-.54551156E-3,-.178E-5,0
ONEWEB-0475,2022-012AK,2026-06-26T22:36:44.143776,13.17649205,.00012781,87.9131,3.9316,80.1445,279.9830,0,U,51655,999,21497,-.10435137E-3,-.28E-6,0
ONEWEB-0490,2022-138A,2026-06-26T21:57:32.097312,13.19727222,.00018463,87.9184,303.0292,103.9998,256.1340,0,U,54113,999,17811,-.11818855E-2,-.46E-5,0
ONEWEB-0492,2022-138B,2026-06-26T20:44:44.714688,13.19726379,.00019891,87.9178,303.0403,106.6236,253.5116,0,U,54114,999,17811,.19049604E-3,.89E-6,0
ONEWEB-0495,2022-138C,2026-06-26T20:12:54.501408,13.19724975,.00015386,87.9177,303.0471,118.6972,241.4315,0,U,54115,999,17809,-.13487283E-4,.8E-7,0
ONEWEB-0497,2022-138D,2026-06-26T20:31:06.272544,13.19725328,.00017671,87.9184,303.0373,102.9726,257.1604,0,U,54116,999,17808,.63731605E-4,.38E-6,0
ONEWEB-0499,2022-138E,2026-06-26T21:56:22.604064,13.19726781,.00016729,87.9177,303.0342,103.2902,256.8417,0,U,54117,999,17810,-.12960231E-3,-.39E-6,0
ONEWEB-0500,2022-138F,2026-06-26T20:10:38.081856,13.19724577,.00020016,87.9184,303.0438,100.8553,259.2805,0,U,54118,999,17810,.11457251E-3,.59E-6,0
ONEWEB-0501,2022-138G,2026-06-26T20:53:51.434016,13.19723742,.00016037,87.9185,303.0373,110.9693,249.1611,0,U,54119,999,17808,-.20708474E-3,-.7E-6,0
ONEWEB-0502,2022-138H,2026-06-26T20:33:22.425984,13.19724121,.00016411,87.9186,303.0290,101.2288,258.9030,0,U,54120,999,17810,.23139895E-4,.22E-6,0
ONEWEB-0503,2022-138J,2026-06-26T20:17:27.445056,13.19724714,.0001807,87.9190,303.0375,92.0503,268.0836,0,U,54121,999,17809,.30062151E-4,.25E-6,0
ONEWEB-0504,2022-138K,2026-06-26T21:48:26.411328,13.19725389,.00016399,87.9183,303.0298,100.9986,259.1332,0,U,54122,999,17811,.10329214E-3,.54E-6,0
ONEWEB-0505,2022-138L,2026-06-26T21:43:52.875840,13.19726285,.00015204,87.9182,303.0311,109.1235,251.0062,0,U,54123,999,17809,-.57866113E-4,-.1E-6,0
ONEWEB-0506,2022-138M,2026-06-26T21:07:29.623008,13.19724214,.000166,87.9187,303.0334,107.3090,252.8224,0,U,54124,999,17808,-.20543019E-3,-.69E-6,0
ONEWEB-0507,2022-138N,2026-06-26T19:47:53.374848,13.19725756,.0001768,87.9179,303.0558,105.8454,254.2874,0,U,54125,999,17812,-.67406E-6,.13E-6,0
ONEWEB-0508,2022-138P,2026-06-26T21:32:30.718464,13.19724937,.00017656,87.9176,303.0404,113.7942,246.3376,0,U,54126,999,17811,-.13841005E-3,-.42E-6,0
ONEWEB-0509,2022-138Q,2026-06-26T19:06:56.065536,13.19726182,.00018155,87.9187,303.0511,103.8616,256.2719,0,U,54127,999,17807,-.55550039E-4,-.9E-7,0
ONEWEB-0510,2022-138R,2026-06-26T19:53:35.142144,13.20773646,.00022894,87.9194,272.5145,90.6937,269.4458,0,U,54128,999,18055,.5348705E-4,.35E-6,0
ONEWEB-0511,2022-138S,2026-06-26T20:51:33.635520,13.19726313,.00016477,87.9184,303.0391,94.3466,265.7855,0,U,54129,999,17811,-.11175699E-3,-.32E-6,0
ONEWEB-0512,2022-138T,2026-06-26T18:51:00.902304,13.19725780,.00015619,87.9176,303.0600,102.6206,257.5102,0,U,54130,999,17807,-.30306019E-3,-.108E-5,0
ONEWEB-0513,2022-138U,2026-06-26T20:42:32.890752,13.20268533,.00009575,87.9185,302.9876,99.1134,261.0108,0,U,54131,999,17799,-.2423707E-3,-.85E-6,0
ONEWEB-0514,2022-138V,2026-06-26T21:02:56.447808,13.19725147,.00019978,87.9186,303.0366,96.8951,263.2409,0,U,54132,999,17810,-.34831703E-3,-.126E-5,0
ONEWEB-0515,2022-138W,2026-06-26T19:34:12.689760,13.20770530,.00028569,87.9200,272.5123,102.2710,257.8744,0,U,54133,999,18057,-.81216784E-4,-.2E-6,0
ONEWEB-0516,2022-138X,2026-06-26T20:26:32.141760,13.19725966,.00018755,87.9177,303.0470,104.4735,255.6606,0,U,54134,999,17810,-.50919405E-4,-.7E-7,0
ONEWEB-0517,2022-138Y,2026-06-26T21:46:09.616800,13.19722567,.00017976,87.9183,303.0292,89.0768,271.0571,0,U,54135,999,17811,.91486053E-3,.379E-5,0
ONEWEB-0518,2022-138Z,2026-06-26T20:24:15.855264,13.19727844,.00019921,87.9177,303.0494,105.1295,255.0058,0,U,54136,999,17810,-.49609861E-4,-.7E-7,0
ONEWEB-0519,2022-138AA,2026-06-26T21:00:39.589344,13.19726591,.00018217,87.9184,303.0365,93.6999,266.4342,0,U,54137,999,17811,-.17626419E-4,.6E-7,0
ONEWEB-0520,2022-138AB,2026-06-26T21:50:42.868896,13.19725067,.00017211,87.9187,303.0299,106.6943,253.4378,0,U,54138,999,17810,-.7160417E-5,.1E-6,0
ONEWEB-0521,2022-138AC,2026-06-26T20:49:17.265216,13.19726138,.00018809,87.9185,303.0267,92.7546,267.3802,0,U,54139,999,17804,-.62838917E-4,-.12E-6,0
