ONEWEB-0473             
1 51653U 22012AH  26177.87536611  .00001470  00000+0  41753-2 0  9990
2 51653  87.8825  34.3468 0001800  82.2990 277.8342 13.10368414210576
ONEWEB-0474             
1 51654U 22012AJ  26177.86684526 -.00000178  00000+0 -54551-3 0  9996
2 51654  87.8834  34.3335 0001534  80.4219 279.7082 13.10373081210565
ONEWEB-0475             
1 51655U 22012AK  26177.94217759 -.00000028  00000+0 -10435-3 0  9993
2 51655  87.9131   3.9316 0001278  80.1445 279.9830 13.17649205214974
ONEWEB-0490             
1 54113U 22138A   26177.91495483 -.00000460  00000+0 -11819-2 0  9999
2 54113  87.9184 303.0292 0001846 103.9998 256.1340 13.19727222178115
ONEWEB-0492             
1 54114U 22138B   26177.86440642  .00000089  00000+0  19050-3 0  9992
2 54114  87.9178 303.0403 0001989 106.6236 253.5116 13.19726379178110
ONEWEB-0495             
1 54115U 22138C   26177.84229747  .00000008  00000+0 -13487-4 0  9993
2 54115  87.9177 303.0471 0001538 118.6972 241.4315 13.19724975178099
ONEWEB-0497             
1 54116U 22138D   26177.85493371  .00000038  00000+0  63732-4 0  9991
2 54116  87.9184 303.0373 0001767 102.9726 257.1604 13.19725328178083
ONEWEB-0499             
1 54117U 22138E   26177.91415051 -.00000039  00000+0 -12960-3 0  9997
2 54117  87.9177 303.0342 0001672 103.2902 256.8417 13.19726781178102
ONEWEB-0500             
1 54118U 22138F   26177.84071854  .00000059  00000+0  11457-3 0  9999
2 54118  87.9184 303.0438 0002001 100.8553 259.2805 13.19724577178108
ONEWEB-0501             
1 54119U 22138G   26177.87073419 -.00000070  00000+0 -20708-3 0  9996
2 54119  87.9185 303.0373 0001603 110.9693 249.1611 13.19723742178085
ONEWEB-0502             
1 54120U 22138H   26177.85650956  .00000022  00000+0  23140-4 0  9992
2 54120  87.9186 303.0290 0001641 101.2288 258.9030 13.19724121178109
ONEWEB-0503             
1 54121U 22138J   26177.84545654  .00000025  00000+0  30062-4 0  9994
2 54121  87.9190 303.0375 0001807  92.0503 268.0836 13.19724714178092
ONEWEB-0504             
1 54122U 22138K   26177.90863902  .00000054  00000+0  10329-3 0  9996
2 54122  87.9183 303.0298 0001639 100.9986 259.1332 13.19725389178110
ONEWEB-0505             
1 54123U 22138L   26177.90547310 -.00000010  00000+0 -57866-4 0  9991
2 54123  87.9182 303.0311 0001520 109.1235 251.0062 13.19726285178097
ONEWEB-0506             
1 54124U 22138M   26177.88020397 -.00000069  00000+0 -20543-3 0  9995
2 54124  87.9187 303.0334 0001660 107.3090 252.8224 13.19724214178080
ONEWEB-0507             
1 54125U 22138N   26177.82492332  .00000013  00000+0 -67406-6 0  9992
2 54125  87.9179 303.0558 0001768 105.8454 254.2874 13.19725756178120
ONEWEB-0508             
1 54126U 22138P   26177.89757776 -.00000042  00000+0 -13841-3 0  9990
2 54126  87.9176 303.0404 0001765 113.7942 246.3376 13.19724937178113
ONEWEB-0509             
1 54127U 22138Q   26177.79648224 -.00000009  00000+0 -55550-4 0  9994
2 54127  87.9187 303.0511 0001815 103.8616 256.2719 13.19726182178079
ONEWEB-0510             
1 54128U 22138R   26177.82887896  .00000035  00000+0  53487-4 0  9993
2 54128  87.9194 272.5145 0002289  90.6937 269.4458 13.20773646180557
ONEWEB-0511             
1 54129U 22138S   26177.86913930 -.00000032  00000+0 -11176-3 0  9994
2 54129  87.9184 303.0391 0001647  94.3466 265.7855 13.19726313178111
ONEWEB-0512             
1 54130U 22138T   26177.78542711 -.00000108  00000+0 -30306-3 0  9992
2 54130  87.9176 303.0600 0001561 102.6206 257.5102 13.19725780178073
ONEWEB-0513             
1 54131U 22138U   26177.86288068 -.00000085  00000+0 -24237-3 0  9994
2 54131  87.9185 302.9876 0000957  99.1134 261.0108 13.20268533177991
ONEWEB-0514             
1 54132U 22138V   26177.87704222 -.00000126  00000+0 -34832-3 0  9999
2 54132  87.9186 303.0366 0001997  96.8951 263.2409 13.19725147178104
ONEWEB-0515             
1 54133U 22138W   26177.81542465 -.00000020  00000+0 -81217-4 0  9996
2 54133  87.9200 272.5123 0002856 102.2710 257.8744 13.20770530180576
ONEWEB-0516             
1 54134U 22138X   26177.85176090 -.00000007  00000+0 -50919-4 0  9998
2 54134  87.9177 303.0470 0001875 104.4735 255.6606 13.19725966178106
ONEWEB-0517             
1 54135U 22138Y   26177.90705575  .00000379  00000+0  91486-3 0  9994
2 54135  87.9183 303.0292 0001797  89.0768 271.0571 13.19722567178111
ONEWEB-0518             
1 54136U 22138Z   26177.85018351 -.00000007  00000+0 -49610-4 0  9991
2 54136  87.9177 303.0494 0001992 105.1295 255.0058 13.19727844178105
ONEWEB-0519             
1 54137U 22138AA  26177.87545821  .00000006  00000+0 -17626-4 0  9991
2 54137  87.9184 303.0365 0001821  93.6999 266.4342 13.19726591178115
ONEWEB-0520             
1 54138U 22138AB  26177.91021839  .00000010  00000+0 -71604-5 0  9997
2 54138  87.9187 303.0299 0001721 106.6943 253.4378 13.19725067178109
ONEWEB-0521             
1 54139U 22138AC  26177.86756094 -.00000012  00000+0 -62839-4 0  9992
2 54139  87.9185 303.0267 0001880  92.7546 267.3802 13.19726138178042
